     2.100          NAVIGATION                              RINEX VERSION / TYPE
fic2rin                                 10/22/2008 02:17:25 PGM / RUN BY / DATE
                                                            END OF HEADER
20 08 10 21 10  0  0.0  .101295299828D-03 -.102318153949D-11  .000000000000D+00
     .470000000000D+02  .455937500000D+02  .476591280511D-08  .163705269999D+00
     .220537185669D-05  .355785503052D-02  .871159136295D-05  .515375432014D+04
     .208800000000D+06 -.122934579849D-06 -.176670038422D+01  .353902578354D-07
     .944927855581D+00  .204468750000D+03  .134607299533D+01 -.821105630917D-08
    -.265725354242D-09  .100000000000D+01  .150200000000D+04  .000000000000D+00
     .240000000000D+01  .000000000000D+00 -.651925802231D-08  .470000000000D+02
     .201606000000D+06  .400000000000D+01
21 08 10 21 10  0  0.0  .458210706711D-04 -.147792889038D-11  .000000000000D+00
     .570000000000D+02  .218750000000D+02  .527700552275D-08  .129619898151D+01
     .133737921715D-05  .143490477931D-01  .747852027416D-05  .515367150116D+04
     .208800000000D+06 -.137835741043D-06 -.277158496736D+01  .167638063431D-06
     .935620514750D+00  .224125000000D+03 -.267101402198D+01 -.842035074141D-08
    -.399659504565D-09  .100000000000D+01  .150200000000D+04  .000000000000D+00
     .240000000000D+01  .000000000000D+00 -.116415321827D-07  .570000000000D+02
     .201606000000D+06  .400000000000D+01
22 08 10 21 10  0  0.0  .210211146623D-03 -.341060513165D-12  .000000000000D+00
     .101000000000D+03  .638125000000D+02  .478627079596D-08 -.111980794717D+01
     .337511301041D-05  .514668005053D-02  .883080065250D-05  .515367109299D+04
     .208800000000D+06 -.335276126862D-07 -.170680668063D+01  .931322574615D-07
     .943007937986D+00  .200218750000D+03 -.182093146401D+01 -.821355641331D-08
    -.248224625266D-09  .100000000000D+01  .150200000000D+04  .000000000000D+00
     .485000000000D+01  .000000000000D+00 -.176951289177D-07  .101000000000D+03
     .201606000000D+06  .400000000000D+01
23 08 10 21 10  0  0.0  .377444550395D-03  .125055521494D-11  .000000000000D+00
     .100000000000D+02  .591875000000D+02  .431910847963D-08 -.246364625614D+01
     .320002436638D-05  .585305935238D-02  .634603202343D-05  .515368503189D+04
     .208800000000D+06 -.135973095894D-06 -.694861038106D+00  .186264514923D-08
     .971197338016D+00  .267093750000D+03  .286248762615D+01 -.803033449566D-08
     .170721396946D-09  .100000000000D+01  .150200000000D+04  .000000000000D+00
     .240000000000D+01  .000000000000D+00 -.200234353542D-07  .100000000000D+02
     .201606000000D+06  .400000000000D+01
24 08 10 21 10  0  0.0  .134851317853D-03  .295585778076D-11  .000000000000D+00
     .710000000000D+02  .195937500000D+02  .490056127090D-08 -.484732492768D-01
     .981613993645D-06  .740293168928D-02  .727921724319D-05  .515365425110D+04
     .208800000000D+06  .186264514923D-07 -.274315278730D+01 -.126659870148D-06
     .952263751916D+00  .233875000000D+03 -.689358059627D+00 -.823427156189D-08
    -.201436962087D-09  .100000000000D+01  .150200000000D+04  .000000000000D+00
     .240000000000D+01  .000000000000D+00 -.139698386192D-08  .710000000000D+02
     .201606000000D+06  .400000000000D+01
26 08 10 21 10  0  0.0  .542774796486D-05  .488853402203D-11  .000000000000D+00
     .550000000000D+02  .556875000000D+02  .377872882779D-08 -.292899965890D+01
     .268779695034D-05  .192019643728D-01  .507012009621D-05  .515363432884D+04
     .208800000000D+06  .160187482834D-06 -.649776217239D+00 -.236555933952D-06
     .993399273284D+00  .298406250000D+03  .957151058395D+00 -.756317217934D-08
     .196436753808D-09  .100000000000D+01  .150200000000D+04  .000000000000D+00
     .240000000000D+01  .000000000000D+00 -.605359673500D-08  .550000000000D+02
     .201606000000D+06  .400000000000D+01
27 08 10 21 10  0  0.0  .226728618145D-03  .284217094304D-11  .000000000000D+00
     .390000000000D+02 -.333125000000D+02  .460233456285D-08  .417718566466D+00
    -.170059502125D-05  .212754119420D-01  .444985926151D-05  .515371727753D+04
     .208800000000D+06 -.229105353355D-06  .288051178191D+00 -.558793544769D-07
     .971652918501D+00  .305500000000D+03 -.168009007191D+01 -.864357432528D-08
    -.260725145963D-10  .100000000000D+01  .150200000000D+04  .000000000000D+00
     .240000000000D+01  .000000000000D+00 -.419095158577D-08  .390000000000D+02
     .201606000000D+06  .400000000000D+01
28 08 10 21 10  0  0.0 -.232104212046D-04 -.113686837722D-12  .000000000000D+00
     .550000000000D+02 -.691875000000D+02  .449411576939D-08 -.772070545209D+00
    -.359676778316D-05  .140793336323D-01  .832043588161D-05  .515363933182D+04
     .208800000000D+06 -.577419996262D-07  .142314232855D+01  .270083546638D-06
     .964471863267D+00  .222562500000D+03 -.208878256257D+01 -.819605568433D-08
    -.285726187357D-10  .100000000000D+01  .150200000000D+04  .000000000000D+00
     .340000000000D+01  .000000000000D+00 -.102445483208D-07  .550000000000D+02
     .201606000000D+06  .400000000000D+01
29 08 10 21 10  0  0.0 -.335737131536D-04  .147792889038D-11  .000000000000D+00
     .390000000000D+02 -.209375000000D+01  .472483966568D-08  .141933631456D+01
    -.247731804848D-06  .335082539823D-02  .887550413609D-05  .515380621910D+04
     .208800000000D+06  .335276126862D-07  .246462378092D+01 -.391155481339D-07
     .959867891836D+00  .207562500000D+03 -.134103253450D+01 -.798140388608D-08
     .220009164265D-09  .100000000000D+01  .150200000000D+04  .000000000000D+00
     .240000000000D+01  .000000000000D+00 -.884756445885D-08  .390000000000D+02
     .201606000000D+06  .400000000000D+01
30 08 10 21 10  0  0.0  .103256665170D-03  .216004991671D-11  .000000000000D+00
     .112000000000D+03 -.836562500000D+02  .482591530446D-08 -.350342083714D+00
    -.436045229435D-05  .111725979950D-01  .913627445698D-05  .515368454742D+04
     .208800000000D+06 -.111758708954D-06  .135382174324D+01  .856816768646D-07
     .949628129446D+00  .197000000000D+03  .140884356829D+01 -.838249202158D-08
     .714315468392D-10  .100000000000D+01  .150200000000D+04  .000000000000D+00
     .340000000000D+01  .000000000000D+00 -.791624188423D-08  .112000000000D+03
     .201606000000D+06  .400000000000D+01
31 08 10 21 10  0  0.0 -.337441451848D-04 -.227373675443D-11  .000000000000D+00
     .181000000000D+03 -.554375000000D+02  .449340145392D-08  .212877228553D+01
    -.280886888504D-05  .678581942338D-02  .347942113876D-05  .515356385994D+04
     .208800000000D+06  .782310962677D-07  .344457367003D+00 -.745058059692D-08
     .970052276925D+00  .314250000000D+03 -.123715987078D+01 -.818605526777D-08
    -.592881838766D-10  .100000000000D+01  .150200000000D+04  .000000000000D+00
     .340000000000D+01  .000000000000D+00 -.130385160446D-07  .181000000000D+03
     .201606000000D+06  .400000000000D+01
32 08 10 21 10  0  0.0  .315958634019D-03 -.568434188608D-12  .000000000000D+00
     .420000000000D+02  .574375000000D+02  .411231415153D-08  .307441870892D+01
     .282749533653D-05  .139424303779D-01  .915862619877D-05  .515373944664D+04
     .208800000000D+06  .141561031342D-06 -.166169387414D+01  .115483999252D-06
     .966852889715D+00  .200625000000D+03 -.126774270573D+01 -.766567644905D-08
    -.247153152064D-09  .100000000000D+01  .150200000000D+04  .000000000000D+00
     .240000000000D+01  .000000000000D+00 -.325962901115D-08  .420000000000D+02
     .201606000000D+06  .400000000000D+01
22 08 10 21  9 59 44.0  .210210215300D-03 -.341060513165D-12  .000000000000D+00
     .000000000000D+00  .638125000000D+02  .478627079596D-08 -.112214226264D+01
     .337511301041D-05  .514668307733D-02  .883080065250D-05  .515367109680D+04
     .208784000000D+06 -.335276126862D-07 -.170680654165D+01  .931322574615D-07
     .943007920431D+00  .200218750000D+03 -.182093090810D+01 -.821355641331D-08
    -.248224625266D-09  .100000000000D+01  .150200000000D+04  .000000000000D+00
     .240000000000D+01  .000000000000D+00 -.176951289177D-07  .000000000000D+00
     .205416000000D+06  .400000000000D+01
13 08 10 21  9 59 44.0  .274726189673D-03  .102318153949D-11  .000000000000D+00
     .240000000000D+02  .565312500000D+02  .380765860426D-08 -.161755866705D+01
     .314041972160D-05  .361552124377D-02  .604800879955D-05  .515356470490D+04
     .208784000000D+06  .186264514923D-08 -.648006485740D+00  .819563865662D-07
     .995493671656D+00  .283218750000D+03  .155390736913D+01 -.781925427475D-08
     .175007289756D-09  .100000000000D+01  .150200000000D+04  .000000000000D+00
     .240000000000D+01  .000000000000D+00 -.111758708954D-07  .240000000000D+02
     .205956000000D+06  .400000000000D+01
31 08 10 21  9 59 44.0 -.337446108460D-04 -.216004991671D-11  .000000000000D+00
     .110000000000D+02 -.554375000000D+02  .449304429619D-08  .212643864593D+01
    -.280886888504D-05  .678582163528D-02  .347942113876D-05  .515356386948D+04
     .208784000000D+06  .782310962677D-07  .344457470871D+00 -.745058059692D-08
     .970052263759D+00  .314250000000D+03 -.123716010192D+01 -.818605526777D-08
    -.592881838766D-10  .100000000000D+01  .150200000000D+04  .000000000000D+00
     .240000000000D+01  .000000000000D+00 -.130385160446D-07  .110000000000D+02
     .207456000000D+06  .400000000000D+01
30 08 10 21  9 59 44.0  .103265512735D-03  .216004991671D-11  .000000000000D+00
     .300000000000D+01 -.836562500000D+02  .482555814672D-08 -.352675758430D+00
    -.436045229435D-05  .111726113828D-01  .913627445698D-05  .515368454933D+04
     .208784000000D+06 -.111758708954D-06  .135382185589D+01  .856816768646D-07
     .949628149927D+00  .197000000000D+03  .140884350392D+01 -.838213486385D-08
     .714315468392D-10  .100000000000D+01  .150200000000D+04  .000000000000D+00
     .240000000000D+01  .000000000000D+00 -.791624188423D-08  .300000000000D+01
     .208206000000D+06  .400000000000D+01
